#aV2013  4 27  0  0  0.00000000     288 DD+AD WGS84 FIT  NGA
## 1737 518400.00000000   300.00000000 56409 0.0000000000000
+   30     1  2  3  4  5  6  7  8  9 10 11 12 13 14 15 16 17
+         18 19 20 21 22 23 24 25 26 28 29 31 32  0  0  0  0
+          0  0  0  0  0  0  0  0  0  0  0  0  0  0  0  0  0
+          0  0  0  0  0  0  0  0  0  0  0  0  0  0  0  0  0
+          0  0  0  0  0  0  0  0  0  0  0  0  0  0  0  0  0
++         2  2  2  2  2  2  2  2  2  2  2  2  2  2  2  2  2
++         2  2  2  2  2  2  2  2  2  2  2  2  2  2  2  0  0
++         0  0  0  0  0  0  0  0  0  0  0  0  0  0  0  0  0
++         0  0  0  0  0  0  0  0  0  0  0  0  0  0  0  0  0
++         0  0  0  0  0  0  0  0  0  0  0  0  0  0  0  0  0
%c cc cc ccc ccc cccc cccc cccc cccc ccccc ccccc ccccc ccccc
%c cc cc ccc ccc cccc cccc cccc cccc ccccc ccccc ccccc ccccc
%f  0.0000000  0.000000000  0.00000000000  0.000000000000000
%f  0.0000000  0.000000000  0.00000000000  0.000000000000000
%i    0    0    0    0      0      0      0      0         0
%i    0    0    0    0      0      0      0      0         0
/*      NGA, ST. LOUIS,MO.                                  
/*   EPHEMERIS COMPUTED FROM  1 DAYS OF DATA
/*   EPOCHA SMOOTHER  
/* CCCCCCCCCCCCCCCCCCCCCCCCCCCCCCCCCCCCCCCCCCCCCCCCCCCCCCCCC
*  2013  4 27 11 10  0.00000000                                                 
P  1 -10859.198275  21050.198533 -11949.693736     20.212847                    
V  1 -12907.318579   8354.852756  26562.720069      0.037695                    
P  2  21804.483778 -11593.627827  -8855.534294    429.345074                    
V  2  -6031.652562  10697.124895 -28718.435591      0.018701                    
P  3 -12461.554342  10200.718332  20582.213080    199.435346                    
V  3 -10351.849818 -25439.539882   6408.215582      0.049204                    
P  4  20172.649504   -804.221747 -17678.985684    202.180860                    
V  4 -14965.979571  16044.820909 -17815.601200      0.107086                    
P  5  21417.466039  -4501.051440  15117.817117   -392.948371                    
V  5  17633.978834   7953.689474 -22432.561342     -0.011648                    
P  6 -15394.861863   3196.164993  21503.052665    256.421701                    
V  6  -7387.888018 -26141.231336  -1046.708913     -0.159223                    
P  7   3597.386703  15760.420071  21054.717024    207.373574                    
V  7 -20676.127232  16855.926244  -9387.969931      0.042889                    
P  8  12746.566453   8277.055362  21966.822900      5.847194                    
V  8 -22250.453042  16075.743454   6313.872065      0.002235                    
P  9  21445.837744  -7689.686442  13137.964655    236.936906                    
V  9 -11779.364830  13131.082349  25772.809681      0.026022                    
P 10  25328.176385   8721.382867    -65.934665    -77.929623                    
V 10   -720.849218   2910.273530 -31114.366553     -0.011800                    
P 11 -11572.683177  23623.865333  -2811.333661   -376.362480                    
V 11  -6099.574442     -4.827517  29954.385069     -0.036625                    
P 12   5346.819812 -13715.056328 -22135.933893    130.655412                    
V 12  26285.962508   9546.045550    639.022450      0.020805                    
P 13   4099.444713  26105.713838   1749.788225    124.666523                    
V 13  -1977.071213   2636.679058 -32192.566247     -0.035908                    
P 14 -13886.688118 -14507.942310 -17261.670548    221.051911                    
V 14  -1685.824695 -22194.565804  19644.954925     -0.000694                    
P 15   5931.754698 -21107.111979  14781.962417   -116.872877                    
V 15   7094.190838  17801.556700  22780.297631     -0.014807                    
P 16 -21950.339477   2330.602773  15001.992156   -252.393259                    
V 16 -17212.053416  -7906.059527 -23595.869736      0.001498                    
P 17  14496.678865  14073.326134 -17142.142920     25.438319                    
V 17   2217.432491  22038.334090  19488.745271     -0.040013                    
P 18 -17159.065237 -15968.771871  13218.692659    250.863549                    
V 18  16127.733887   2419.025919  24258.896257      0.017737                    
P 19  -9706.076387  17774.148113  16872.620354   -368.272218                    
V 19  -4610.884609 -21355.711000  20158.706872     -0.031400                    
P 20  -1290.791787  16107.106376 -21260.070366     95.071529                    
V 20 -25911.107194  -6511.648695  -3316.075167      0.019306                    
P 21  -8688.614276 -13730.282021  21533.723982   -294.285355                    
V 21  19861.380210 -17108.568341  -3511.005548     -0.021511                    
P 22 -24243.157740 -10578.137969   3344.899712    165.830456                    
V 22   4984.347918  -2297.484375  30482.854575      0.014241                    
P 23   -359.716454  25229.989273  -7555.515112     91.236119                    
V 23  -4989.828839  -8982.079995 -29892.276645     -0.036347                    
P 24  13748.360095 -20951.087753  -8752.996898     -5.265249                    
V 24   9993.572749  -5547.401099  29050.909206     -0.006969                    
P 25  -7206.265890 -16359.697014 -19720.807542     91.595131                    
V 25  24028.021621   6524.488396 -14128.372139      0.039267                    
P 26  13006.915321  -8703.053660  20757.587831    -10.505326                    
V 26   4172.635285  27582.135925   9009.352905      0.151428                    
P 28  21908.733168  13634.315153   7248.684800    253.551434                    
V 28  -8432.519433  -1383.797397  30380.798561      0.033881                    
P 29  -5229.383675 -26034.366507   1350.118560    430.173576                    
V 29   2325.080722  -2049.824025 -31767.086014      0.035060                    
P 31 -20483.691259   2896.835307 -16644.728055    312.238798                    
V 31  15299.139069 -14890.638272 -20928.779137      0.014134                    
P 32 -10630.895538  11854.489623 -21048.664659   -552.870121                    
V 32 -24687.857949 -11377.239089   6535.853231     -0.022538                    
EOF
